{
  "type": "FeatureCollection",
  "features": [
    {
      "type": "Feature",
      "properties": {
        "norad_id": 66428,
        "name": "STARLINK-35610",
        "group": "last-30-days",
        "lat": 5.73098476612665,
        "lon": 102.74669480095604,
        "alt_km": 414.0280938138512,
        "timestamp": "2025-12-04T07:39:34.998621+00:00",
        "meta_object_name": "STARLINK-35610",
        "meta_object_id": "2025-259G",
        "meta_epoch": "2025-12-03T22:00:03.000096",
        "meta_mean_motion": 15.50604237,
        "meta_eccentricity": 0.00015881,
        "meta_inclination": 43.0003,
        "meta_ra_of_asc_node": 98.9187,
        "meta_arg_of_pericenter": 274.5334,
        "meta_mean_anomaly": 4.7081,
        "meta_ephemeris_type": 0,
        "meta_classification_type": "U",
        "meta_norad_cat_id": 66428,
        "meta_element_set_no": 999,
        "meta_rev_at_epoch": 486,
        "meta_bstar": -0.0003639439,
        "meta_mean_motion_dot": -0.00021653,
        "meta_mean_motion_ddot": 0,
        "tle_line1": "1 66428U 25259G   25337.91670139 -.00021653  00000+0 -36394-3 0  9991",
        "tle_line2": "2 66428  43.0003  98.9187 0001588 274.5334   4.7081 15.50604237  4861"
      },
      "geometry": {
        "type": "Point",
        "coordinates": [
          102.74669480095604,
          5.73098476612665
        ]
      }
    },
    {
      "type": "Feature",
      "properties": {
        "norad_id": 66429,
        "name": "STARLINK-35533",
        "group": "last-30-days",
        "lat": 7.022244468857127,
        "lon": 104.15428955564992,
        "alt_km": 414.0757391061852,
        "timestamp": "2025-12-04T07:39:34.998631+00:00",
        "meta_object_name": "STARLINK-35533",
        "meta_object_id": "2025-259H",
        "meta_epoch": "2025-12-03T22:00:03.000096",
        "meta_mean_motion": 15.50657211,
        "meta_eccentricity": 0.00015984,
        "meta_inclination": 43.0003,
        "meta_ra_of_asc_node": 98.913,
        "meta_arg_of_pericenter": 272.4408,
        "meta_mean_anomaly": 8.7091,
        "meta_ephemeris_type": 0,
        "meta_classification_type": "U",
        "meta_norad_cat_id": 66429,
        "meta_element_set_no": 999,
        "meta_rev_at_epoch": 486,
        "meta_bstar": -0.0026510189,
        "meta_mean_motion_dot": -0.00153288,
        "meta_mean_motion_ddot": 0,
        "tle_line1": "1 66429U 25259H   25337.91670139 -.00153288  00000+0 -26510-2 0  9990",
        "tle_line2": "2 66429  43.0003  98.9130 0001598 272.4408   8.7091 15.50657211  4865"
      },
      "geometry": {
        "type": "Point",
        "coordinates": [
          104.15428955564992,
          7.022244468857127
        ]
      }
    },
    {
      "type": "Feature",
      "properties": {
        "norad_id": 66430,
        "name": "STARLINK-35470",
        "group": "last-30-days",
        "lat": 8.308307116930328,
        "lon": 105.57086401869381,
        "alt_km": 413.93171164196065,
        "timestamp": "2025-12-04T07:39:34.998640+00:00",
        "meta_object_name": "STARLINK-35470",
        "meta_object_id": "2025-259J",
        "meta_epoch": "2025-12-03T22:00:03.000096",
        "meta_mean_motion": 15.50637136,
        "meta_eccentricity": 0.00015948,
        "meta_inclination": 43.0001,
        "meta_ra_of_asc_node": 98.9094,
        "meta_arg_of_pericenter": 270.8187,
        "meta_mean_anomaly": 12.2451,
        "meta_ephemeris_type": 0,
        "meta_classification_type": "U",
        "meta_norad_cat_id": 66430,
        "meta_element_set_no": 999,
        "meta_rev_at_epoch": 486,
        "meta_bstar": -0.0020318085,
        "meta_mean_motion_dot": -0.00118005,
        "meta_mean_motion_ddot": 0,
        "tle_line1": "1 66430U 25259J   25337.91670139 -.00118005  00000+0 -20318-2 0  9990",
        "tle_line2": "2 66430  43.0001  98.9094 0001594 270.8187  12.2451 15.50637136  4860"
      },
      "geometry": {
        "type": "Point",
        "coordinates": [
          105.57086401869381,
          8.308307116930328
        ]
      }
    },
    {
      "type": "Feature",
      "properties": {
        "norad_id": 66431,
        "name": "STARLINK-35439",
        "group": "last-30-days",
        "lat": 9.606516475962618,
        "lon": 107.01372369089516,
        "alt_km": 413.93044818579256,
        "timestamp": "2025-12-04T07:39:34.998650+00:00",
        "meta_object_name": "STARLINK-35439",
        "meta_object_id": "2025-259K",
        "meta_epoch": "2025-12-03T22:00:03.000096",
        "meta_mean_motion": 15.50666097,
        "meta_eccentricity": 0.00016506,
        "meta_inclination": 43.0003,
        "meta_ra_of_asc_node": 98.9036,
        "meta_arg_of_pericenter": 265.3994,
        "meta_mean_anomaly": 19.5847,
        "meta_ephemeris_type": 0,
        "meta_classification_type": "U",
        "meta_norad_cat_id": 66431,
        "meta_element_set_no": 999,
        "meta_rev_at_epoch": 486,
        "meta_bstar": -0.0029431273,
        "meta_mean_motion_dot": -0.0016984,
        "meta_mean_motion_ddot": 0,
        "tle_line1": "1 66431U 25259K   25337.91670139 -.00169840  00000+0 -29431-2 0  9999",
        "tle_line2": "2 66431  43.0003  98.9036 0001650 265.3994  19.5847 15.50666097  4864"
      },
      "geometry": {
        "type": "Point",
        "coordinates": [
          107.01372369089516,
          9.606516475962618
        ]
      }
    },
    {
      "type": "Feature",
      "properties": {
        "norad_id": 66432,
        "name": "STARLINK-35446",
        "group": "last-30-days",
        "lat": 10.82504465458219,
        "lon": 108.38428474681862,
        "alt_km": 412.8437171703308,
        "timestamp": "2025-12-04T07:39:34.998660+00:00",
        "meta_object_name": "STARLINK-35446",
        "meta_object_id": "2025-259L",
        "meta_epoch": "2025-12-03T22:00:03.000096",
        "meta_mean_motion": 15.50597076,
        "meta_eccentricity": 0.00018385,
        "meta_inclination": 43.0003,
        "meta_ra_of_asc_node": 98.898,
        "meta_arg_of_pericenter": 300.514,
        "meta_mean_anomaly": 346.2823,
        "meta_ephemeris_type": 0,
        "meta_classification_type": "U",
        "meta_norad_cat_id": 66432,
        "meta_element_set_no": 999,
        "meta_rev_at_epoch": 486,
        "meta_bstar": 0.00018740821,
        "meta_mean_motion_dot": 0.00010675,
        "meta_mean_motion_ddot": 0,
        "tle_line1": "1 66432U 25259L   25337.91670139  .00010675  00000+0  18741-3 0  9992",
        "tle_line2": "2 66432  43.0003  98.8980 0001838 300.5140 346.2823 15.50597076  4869"
      },
      "geometry": {
        "type": "Point",
        "coordinates": [
          108.38428474681862,
          10.82504465458219
        ]
      }
    },
    {
      "type": "Feature",
      "properties": {
        "norad_id": 66433,
        "name": "STARLINK-35457",
        "group": "last-30-days",
        "lat": 12.156200913937571,
        "lon": 109.9054875696896,
        "alt_km": 413.2925604807251,
        "timestamp": "2025-12-04T07:39:34.998671+00:00",
        "meta_object_name": "STARLINK-35457",
        "meta_object_id": "2025-259M",
        "meta_epoch": "2025-12-03T22:00:03.000096",
        "meta_mean_motion": 15.50649521,
        "meta_eccentricity": 0.00016103,
        "meta_inclination": 43.0003,
        "meta_ra_of_asc_node": 98.8948,
        "meta_arg_of_pericenter": 280.5051,
        "meta_mean_anomaly": 8.303,
        "meta_ephemeris_type": 0,
        "meta_classification_type": "U",
        "meta_norad_cat_id": 66433,
        "meta_element_set_no": 999,
        "meta_rev_at_epoch": 486,
        "meta_bstar": -0.0023424945,
        "meta_mean_motion_dot": -0.00135752,
        "meta_mean_motion_ddot": 0,
        "tle_line1": "1 66433U 25259M   25337.91670139 -.00135752  00000+0 -23425-2 0  9993",
        "tle_line2": "2 66433  43.0003  98.8948 0001610 280.5051   8.3030 15.50649521  4869"
      },
      "geometry": {
        "type": "Point",
        "coordinates": [
          109.9054875696896,
          12.156200913937571
        ]
      }
    },
    {
      "type": "Feature",
      "properties": {
        "norad_id": 66434,
        "name": "STARLINK-35389",
        "group": "last-30-days",
        "lat": 13.437152523401828,
        "lon": 111.39168216500204,
        "alt_km": 413.4178578429419,
        "timestamp": "2025-12-04T07:39:34.998680+00:00",
        "meta_object_name": "STARLINK-35389",
        "meta_object_id": "2025-259N",
        "meta_epoch": "2025-12-03T22:00:03.000096",
        "meta_mean_motion": 15.50676763,
        "meta_eccentricity": 0.00017194,
        "meta_inclination": 43.0003,
        "meta_ra_of_asc_node": 98.8904,
        "meta_arg_of_pericenter": 268.4037,
        "meta_mean_anomaly": 22.328,
        "meta_ephemeris_type": 0,
        "meta_classification_type": "U",
        "meta_norad_cat_id": 66434,
        "meta_element_set_no": 999,
        "meta_rev_at_epoch": 486,
        "meta_bstar": -0.0031332622,
        "meta_mean_motion_dot": -0.00180614,
        "meta_mean_motion_ddot": 0,
        "tle_line1": "1 66434U 25259N   25337.91670139 -.00180614  00000+0 -31333-2 0  9998",
        "tle_line2": "2 66434  43.0003  98.8904 0001719 268.4037  22.3280 15.50676763  4862"
      },
      "geometry": {
        "type": "Point",
        "coordinates": [
          111.39168216500204,
          13.437152523401828
        ]
      }
    }
  ]
}